MMS 1                   
1 40482U 15011A   24362.16668981 -.00000702  00000+0  00000+0 0  9996
2 40482  58.2873   0.6782 8919521 155.0002  95.3572  0.28516492  1351
MMS 2                   
1 40483U 15011B   24362.16668981 -.00000702  00000+0  00000+0 0  9997
2 40483  58.2865   0.6792 8919499 154.9997  93.8102  0.28515582  1350
MMS 3                   
1 40484U 15011C   24362.16668981 -.00000702  00000+0  00000+0 0  9998
2 40484  58.2882   0.6776 8919437 155.0004  94.0727  0.28516034  1354
MMS 4                   
1 40485U 15011D   24362.25001157 -.00000708  00000+0  00000+0 0  9991
2 40485  58.2884   0.6788 8918893 154.9997  92.7850  0.28517449  1357
TDRS 13                 
1 42915U 17047A   24362.88480801 -.00000069  00000+0  00000+0 0  9998
2 42915   3.5141 349.0718 0010538 119.5065 295.4265  1.00271893 26971
NOAA 20 (JPSS-1)        
1 43013U 17073A   24363.10308684  .00000245  00000+0  13717-3 0  9999
2 43013  98.7267 297.9223 0001924  54.1275 306.0080 14.19526351368412
KONDOR-FKA NO. 2        
1 62138U 24223A   24363.10002608  .00010925  00000+0  52354-3 0  9996
2 62138  97.4387 203.4153 0002105  43.0116 317.1283 15.19092373  4280
STARLINK-32529          
1 62139U 24224A   24363.02163700  .00001157  00000+0  34944-4 0  9993
2 62139  42.9994 114.9090 0001298 272.9437  87.1271 15.40705375  5512
STARLINK-32464          
1 62140U 24224B   24363.16667824 -.01498334  00000+0 -31657-1 0  9991
2 62140  43.0000 112.3679 0001359 271.8443 147.3046 15.47314515  5554
STARLINK-32482          
1 62141U 24224C   24363.16667824 -.01494683  00000+0 -34957-1 0  9991
2 62141  42.9999 112.4102 0001586 275.1714 126.6371 15.44376266  5450
STARLINK-32454          
1 62142U 24224D   24363.16667824 -.01490626  00000+0 -41307-1 0  9992
2 62142  43.0002 112.5189 0001611 271.1986  85.7051 15.39339527  5611
STARLINK-32485          
1 62143U 24224E   24362.76787655  .00001356  00000+0  28932-4 0  9990
2 62143  43.0012 114.6755 0001464 260.7261  99.3433 15.50577848  5125
STARLINK-32388          
1 62144U 24224F   24362.91667824 -.01514306  00000+0 -43691-1 0  9996
2 62144  43.0002 114.0099 0001555 283.1325 104.7325 15.38169159  5647
STARLINK-32374          
1 62145U 24224G   24362.31594128  .00001011  00000+0  23050-4 0  9998
2 62145  42.9990 117.3047 0001695 263.6315  96.4352 15.50579753  5486
STARLINK-32384          
1 62146U 24224H   24363.16667824 -.01492425  00000+0 -38502-1 0  9998
2 62146  43.0003 112.4454 0001635 273.4535 113.3978 15.41484510  5613
STARLINK-32295          
1 62147U 24224J   24363.02416936  .00000330  00000+0  11446-4 0  9998
2 62147  43.0003 113.1569 0001267 269.9047  90.1668 15.50574099  5483
STARLINK-32479          
1 62148U 24224K   24363.16667824 -.01486680  00000+0 -40434-1 0  9993
2 62148  43.0002 112.4676 0001599 277.0272 100.0912 15.39894456  5552
STARLINK-32468          
1 62149U 24224L   24363.16667824 -.01495921  00000+0 -33722-1 0  9994
2 62149  42.9998 112.3545 0001432 278.0901 145.7886 15.45447923  5450
STARLINK-32629          
1 62150U 24224M   24363.16667824 -.01493655  00000+0 -36817-1 0  9996
2 62150  43.0000 112.3900 0001548 276.0811 132.9815 15.42835977  5614
STARLINK-32644          
1 62151U 24224N   24362.91667824 -.00000154  00000+0  32013-5 0  9993
2 62151  42.9998 113.7270 0001554 273.4936 229.9136 15.50592382  5645
STARLINK-32623          
1 62152U 24224P   24363.16667824 -.01493313  00000+0 -37690-1 0  9999
2 62152  43.0000 112.4003 0001570 275.5109 129.1861 15.42136600  5559
STARLINK-32639          
1 62153U 24224Q   24363.02228782 -.00059630  00000+0 -10290-2 0  9998
2 62153  43.0001 113.1414 0001878  21.6295 338.4644 15.50285975  5432
STARLINK-32625          
1 62154U 24224R   24362.76410292  .00001682  00000+0  34488-4 0  9997
2 62154  43.0012 114.6430 0001554 264.3715  95.6968 15.50578943  5445
STARLINK-32635          
1 62155U 24224S   24362.91667824 -.01513413  00000+0 -44272-1 0  9992
2 62155  43.0002 113.9703 0001515 284.6439 118.3970 15.37747610  5489
STARLINK-32532          
1 62156U 24224T   24363.16667824 -.01494688  00000+0 -36037-1 0  9993
2 62156  42.9999 112.3470 0001424 278.4746 147.4542 15.43488513  5454
STARLINK-32503          
1 62157U 24224U   24362.91667824 -.01513689  00000+0 -46350-1 0  9998
2 62157  43.0002 114.0117 0001581 282.7916 103.0356 15.36349029  5215
STARLINK-32508          
1 62158U 24224V   24363.16667824 -.01496868  00000+0 -34129-1 0  9997
2 62158  42.9999 112.3095 0001419 279.6973 161.4245 15.45120972  5616
STARLINK-32524          
1 62159U 24224W   24363.16667824 -.01495704  00000+0 -35664-1 0  9991
2 62159  42.9999 112.3267 0001459 278.5724 155.6130 15.43814861  5459
STARLINK-32484          
1 62160U 24224X   24363.01970707  .00000875  00000+0  20746-4 0  9990
2 62160  43.0027 113.1215 0001758 277.4941  82.5720 15.50576961  5590
STARLINK-32497          
1 62161U 24224Y   24363.16667824 -.01492169  00000+0 -39784-1 0  9993
2 62161  43.0002 112.3868 0001528 276.7892 132.2081 15.40502975  5610
STARLINK-32526          
1 62162U 24224Z   24363.16667824 -.01489758  00000+0 -42905-1 0  9993
2 62162  43.0004 112.4629 0001593 273.5916 104.4012 15.38171100  5617
STARLINK-32523          
1 62165U 24225C   24362.67897068  .00004596  00000+0  12492-3 0  9997
2 62165  69.9989 192.3785 0003258 264.9835  95.0973 15.38327367  4262
STARLINK-32551          
1 62166U 24225D   24362.97158810  .00005025  00000+0  13626-3 0  9994
2 62166  69.9987 191.7977 0003173 277.6552  82.4267 15.38323090  4298
STARLINK-32506          
1 62167U 24225E   24362.95530307  .00012382  00000+0  32942-3 0  9994
2 62167  69.9984 191.7395 0003669 267.6112  92.4648 15.38373130  4295
STARLINK-32562          
1 62168U 24225F   24362.91667824  .00059883  00000+0  15738-2 0  9996
2 62168  69.9987 191.6376 0003381 275.9259  50.1545 15.38282496  3821
STARLINK-32558          
1 62169U 24225G   24362.93094360  .00029399  00000+0  77623-3 0  9999
2 62169  69.9988 191.6512 0003709 269.5238  90.5516 15.38336338  4300
STARLINK-32538          
1 62170U 24225H   24362.94720799  .00001263  00000+0  37062-4 0  9998
2 62170  69.9978 191.7104 0002847 268.0710  92.0144 15.38320045  4302
STARLINK-32257          
1 62171U 24225J   24362.96345932  .00002274  00000+0  63731-4 0  9998
2 62171  69.9987 191.7672 0003001 267.1076  92.9760 15.38321829  4305
STARLINK-32407          
1 62172U 24225K   24363.16667824 -.00055799  00000+0 -14784-2 0  9993
2 62172  69.9982 190.9155 0003208 276.6717  38.4947 15.38348198  4337
STARLINK-32575          
1 62173U 24225L   24363.16667824 -.00038750  00000+0 -10232-2 0  9996
2 62173  69.9982 190.9406 0003197 272.8180  20.3392 15.38350118  4335
STARLINK-32552          
1 62174U 24225M   24362.96744345 -.00002190  00000+0 -54136-4 0  9990
2 62174  69.9985 191.7824 0003485 267.6459  92.4322 15.38303147  4303
STARLINK-32534          
1 62175U 24225N   24362.95118024  .00003067  00000+0  84568-4 0  9993
2 62175  69.9987 191.7236 0003445 265.4167  94.6619 15.38348213  4307
STARLINK-32516          
1 62176U 24225P   24362.94323127  .00000451  00000+0  15632-4 0  9995
2 62176  69.9987 191.6958 0003064 269.3167  90.7662 15.38317168  4296
STARLINK-32542          
1 62177U 24225Q   24362.91667824 -.00029482  00000+0 -77740-3 0  9992
2 62177  69.9987 191.6629 0003286 272.1566  30.9388 15.38320111  3824
STARLINK-32600          
1 62178U 24225R   24362.91667824 -.00061005  00000+0 -16171-2 0  9990
2 62178  69.9986 191.5591 0003351 268.8409 125.2154 15.38360387  3785
STARLINK-32584          
1 62179U 24225S   24362.91667824 -.01021563  00000+0 -11993-1 0  9993
2 62179  69.9995 189.9833 0003834 277.2883  46.5281 15.63965891  3945
STARLINK-32587          
1 62180U 24225T   24362.91667824 -.01163560  00000+0 -12893-1 0  9999
2 62180  69.9994 189.6129 0003724 278.1869   1.1315 15.65330054  3969
STARLINK-32602          
1 62181U 24225U   24362.93491706  .00000133  00000+0  72467-5 0  9996
2 62181  69.9987 191.6644 0003714 273.4869  86.5886 15.38322602  4303
STARLINK-32565          
1 62182U 24225V   24362.95894423 -.00003805  00000+0 -96757-4 0  9990
2 62182  69.9984 191.7505 0003548 270.0712  90.0061 15.38314124  4296
STARLINK-32589          
1 62183U 24225W   24362.70100760 -.00011179  00000+0 -29160-3 0  9994
2 62183  69.9989 192.4563 0003091 270.2894  89.7931 15.38336937  4264
STARLINK-32581          
1 62184U 24225X   24362.91667824 -.00010317  00000+0 -26894-3 0  9991
2 62184  69.9986 191.5715 0003640 274.8858 108.1992 15.38319746  3903
2024-226A               
1 62185U 24226A   24363.13026929 -.00000066  00000+0  89806-4 0  9995
2 62185  50.0045 132.7217 0056014 270.3060  89.1407 13.60106734  3750
2024-226B               
1 62186U 24226B   24362.89382358  .00000065  00000+0  29765-3 0  9994
2 62186  50.0039 134.1212 0029180 273.7306  86.0240 13.51867207  3715
CZ-12 R/B               
1 62187U 24226C   24362.85939289 -.00000089  00000+0  53725-4 0  9993
2 62187  50.0010 131.3058 0061143 193.6117 166.3127 13.73595604  3750
TJS-13                  
1 62188U 24227A   24359.55839254  .00000649  00000+0  00000+0 0  9993
2 62188  63.4140 104.2912 6967623 269.5924  17.3869  2.00566904   422
CZ-3B R/B               
1 62189U 24227B   24362.57850334  .00076085  19620-6  41804-3 0  9995
2 62189  51.3494 106.7631 7524458 229.5198  36.1606  2.03243297   485
HAISHAO-1               
1 62190U 24228A   24363.16904764  .00054629  00000+0  86587-3 0  9993
2 62190  42.9943 324.9095 0115979 220.1317 139.0930 15.45196478  3649
STARLINK-32686          
1 62192U 24229A   24362.91667824 -.01539316  00000+0 -29059-1 0  9994
2 62192  42.9989 220.8136 0001676 273.9580  61.1443 15.50566018  4908
STARLINK-32688          
1 62193U 24229B   24362.91667824 -.00041676  00000+0 -70785-3 0  9995
2 62193  42.9987 220.8086 0001494 263.0648  73.9557 15.50598481  4832
